{
  "type": "FeatureCollection",
  "features": [
    {
      "type": "Feature",
      "properties": {
        "norad_id": 30674,
        "name": "FENGYUN 1C DEB",
        "group": "fengyun-1c-debris",
        "lat": -73.43174804022333,
        "lon": -170.94355238517238,
        "alt_km": 566.808615901301,
        "timestamp": "2025-12-19T08:58:49.616102+00:00",
        "meta_object_name": "FENGYUN 1C DEB",
        "meta_object_id": "1999-025AQG",
        "meta_epoch": "2025-12-18T22:05:10.000896",
        "meta_mean_motion": 14.96568017,
        "meta_eccentricity": 0.00256121,
        "meta_inclination": 98.9377,
        "meta_ra_of_asc_node": 156.6017,
        "meta_arg_of_pericenter": 284.5872,
        "meta_mean_anomaly": 75.2506,
        "meta_ephemeris_type": 0,
        "meta_classification_type": "U",
        "meta_norad_cat_id": 30674,
        "meta_element_set_no": 999,
        "meta_rev_at_epoch": 97444,
        "meta_bstar": 0.0052597203,
        "meta_mean_motion_dot": 0.00060674,
        "meta_mean_motion_ddot": 0,
        "tle_line1": "1 30674U 99025AQG 25352.92025464  .00060674  00000+0  52597-2 0  9996",
        "tle_line2": "2 30674  98.9377 156.6017 0025612 284.5872  75.2506 14.96568017974443"
      },
      "geometry": {
        "type": "Point",
        "coordinates": [
          -170.94355238517238,
          -73.43174804022333
        ]
      }
    },
    {
      "type": "Feature",
      "properties": {
        "norad_id": 30675,
        "name": "FENGYUN 1C DEB",
        "group": "fengyun-1c-debris",
        "lat": 26.95078451681025,
        "lon": -102.99572848974452,
        "alt_km": 760.4675600906594,
        "timestamp": "2025-12-19T08:58:49.616112+00:00",
        "meta_object_name": "FENGYUN 1C DEB",
        "meta_object_id": "1999-025AQH",
        "meta_epoch": "2025-12-18T17:44:29.420160",
        "meta_mean_motion": 14.27448931,
        "meta_eccentricity": 0.00539376,
        "meta_inclination": 98.755,
        "meta_ra_of_asc_node": 71.8746,
        "meta_arg_of_pericenter": 152.1478,
        "meta_mean_anomaly": 339.3545,
        "meta_ephemeris_type": 0,
        "meta_classification_type": "U",
        "meta_norad_cat_id": 30675,
        "meta_element_set_no": 999,
        "meta_rev_at_epoch": 96977,
        "meta_bstar": 0.0012412064,
        "meta_mean_motion_dot": 3.05e-05,
        "meta_mean_motion_ddot": 0,
        "tle_line1": "1 30675U 99025AQH 25352.73922940  .00003050  00000+0  12412-2 0  9998",
        "tle_line2": "2 30675  98.7550  71.8746 0053937 152.1478 339.3545 14.27448931969778"
      },
      "geometry": {
        "type": "Point",
        "coordinates": [
          -102.99572848974452,
          26.95078451681025
        ]
      }
    },
    {
      "type": "Feature",
      "properties": {
        "norad_id": 30676,
        "name": "FENGYUN 1C DEB",
        "group": "fengyun-1c-debris",
        "lat": -80.67376386718563,
        "lon": -63.86283437215643,
        "alt_km": 1179.22946437682,
        "timestamp": "2025-12-19T08:58:49.616123+00:00",
        "meta_object_name": "FENGYUN 1C DEB",
        "meta_object_id": "1999-025AQJ",
        "meta_epoch": "2025-12-18T07:12:51.372576",
        "meta_mean_motion": 13.73926478,
        "meta_eccentricity": 0.04721572,
        "meta_inclination": 98.2659,
        "meta_ra_of_asc_node": 177.4745,
        "meta_arg_of_pericenter": 33.2439,
        "meta_mean_anomaly": 329.7453,
        "meta_ephemeris_type": 0,
        "meta_classification_type": "U",
        "meta_norad_cat_id": 30676,
        "meta_element_set_no": 999,
        "meta_rev_at_epoch": 94000,
        "meta_bstar": 0.00056318439,
        "meta_mean_motion_dot": 1.152e-05,
        "meta_mean_motion_ddot": 0,
        "tle_line1": "1 30676U 99025AQJ 25352.30059459  .00001152  00000+0  56318-3 0  9993",
        "tle_line2": "2 30676  98.2659 177.4745 0472157  33.2439 329.7453 13.73926478940004"
      },
      "geometry": {
        "type": "Point",
        "coordinates": [
          -63.86283437215643,
          -80.67376386718563
        ]
      }
    },
    {
      "type": "Feature",
      "properties": {
        "norad_id": 30677,
        "name": "FENGYUN 1C DEB",
        "group": "fengyun-1c-debris",
        "lat": 51.5581767662632,
        "lon": 27.681193666223567,
        "alt_km": 791.234314625116,
        "timestamp": "2025-12-19T08:58:49.616133+00:00",
        "meta_object_name": "FENGYUN 1C DEB",
        "meta_object_id": "1999-025AQK",
        "meta_epoch": "2025-12-18T14:58:38.065152",
        "meta_mean_motion": 14.38185842,
        "meta_eccentricity": 0.00664868,
        "meta_inclination": 98.2539,
        "meta_ra_of_asc_node": 37.4971,
        "meta_arg_of_pericenter": 186.5398,
        "meta_mean_anomaly": 304.8724,
        "meta_ephemeris_type": 0,
        "meta_classification_type": "U",
        "meta_norad_cat_id": 30677,
        "meta_element_set_no": 999,
        "meta_rev_at_epoch": 98064,
        "meta_bstar": 0.00086793424,
        "meta_mean_motion_dot": 2.662e-05,
        "meta_mean_motion_ddot": 0,
        "tle_line1": "1 30677U 99025AQK 25352.62405168  .00002662  00000+0  86793-3 0  9998",
        "tle_line2": "2 30677  98.2539  37.4971 0066486 186.5398 304.8724 14.38185842980641"
      },
      "geometry": {
        "type": "Point",
        "coordinates": [
          27.681193666223567,
          51.5581767662632
        ]
      }
    },
    {
      "type": "Feature",
      "properties": {
        "norad_id": 30678,
        "name": "FENGYUN 1C DEB",
        "group": "fengyun-1c-debris",
        "lat": -68.79401311248482,
        "lon": -21.307560805666956,
        "alt_km": 807.3036944259375,
        "timestamp": "2025-12-19T08:58:49.616143+00:00",
        "meta_object_name": "FENGYUN 1C DEB",
        "meta_object_id": "1999-025AQL",
        "meta_epoch": "2025-12-18T20:07:03.535968",
        "meta_mean_motion": 14.2424212,
        "meta_eccentricity": 0.00712142,
        "meta_inclination": 99.0793,
        "meta_ra_of_asc_node": 313.8,
        "meta_arg_of_pericenter": 212.7676,
        "meta_mean_anomaly": 209.2912,
        "meta_ephemeris_type": 0,
        "meta_classification_type": "U",
        "meta_norad_cat_id": 30678,
        "meta_element_set_no": 999,
        "meta_rev_at_epoch": 95962,
        "meta_bstar": 0.0021961467,
        "meta_mean_motion_dot": 5.157e-05,
        "meta_mean_motion_ddot": 0,
        "tle_line1": "1 30678U 99025AQL 25352.83823537  .00005157  00000+0  21961-2 0  9993",
        "tle_line2": "2 30678  99.0793 313.8000 0071214 212.7676 209.2912 14.24242120959622"
      },
      "geometry": {
        "type": "Point",
        "coordinates": [
          -21.307560805666956,
          -68.79401311248482
        ]
      }
    },
    {
      "type": "Feature",
      "properties": {
        "norad_id": 30679,
        "name": "FENGYUN 1C DEB",
        "group": "fengyun-1c-debris",
        "lat": 67.70755258527917,
        "lon": 21.286914288235746,
        "alt_km": 833.6722628269363,
        "timestamp": "2025-12-19T08:58:49.616153+00:00",
        "meta_object_name": "FENGYUN 1C DEB",
        "meta_object_id": "1999-025AQM",
        "meta_epoch": "2025-12-18T22:48:12.178080",
        "meta_mean_motion": 13.79723801,
        "meta_eccentricity": 0.01713589,
        "meta_inclination": 99.3808,
        "meta_ra_of_asc_node": 44.6456,
        "meta_arg_of_pericenter": 62.4313,
        "meta_mean_anomaly": 61.8977,
        "meta_ephemeris_type": 0,
        "meta_classification_type": "U",
        "meta_norad_cat_id": 30679,
        "meta_element_set_no": 999,
        "meta_rev_at_epoch": 94605,
        "meta_bstar": 0.00054346494,
        "meta_mean_motion_dot": 5.84e-06,
        "meta_mean_motion_ddot": 0,
        "tle_line1": "1 30679U 99025AQM 25352.95014095  .00000584  00000+0  54346-3 0  9991",
        "tle_line2": "2 30679  99.3808  44.6456 0171358  62.4313  61.8977 13.79723801946050"
      },
      "geometry": {
        "type": "Point",
        "coordinates": [
          21.286914288235746,
          67.70755258527917
        ]
      }
    },
    {
      "type": "Feature",
      "properties": {
        "norad_id": 30680,
        "name": "FENGYUN 1C DEB",
        "group": "fengyun-1c-debris",
        "lat": 79.66386515870776,
        "lon": -32.72094592807128,
        "alt_km": 929.6108474672083,
        "timestamp": "2025-12-19T08:58:49.616163+00:00",
        "meta_object_name": "FENGYUN 1C DEB",
        "meta_object_id": "1999-025AQN",
        "meta_epoch": "2025-12-18T18:23:01.288032",
        "meta_mean_motion": 13.56159217,
        "meta_eccentricity": 0.03382872,
        "meta_inclination": 99.6298,
        "meta_ra_of_asc_node": 35.2546,
        "meta_arg_of_pericenter": 152.9003,
        "meta_mean_anomaly": 209.025,
        "meta_ephemeris_type": 0,
        "meta_classification_type": "U",
        "meta_norad_cat_id": 30680,
        "meta_element_set_no": 999,
        "meta_rev_at_epoch": 92335,
        "meta_bstar": 0.0035013915,
        "meta_mean_motion_dot": 3.512e-05,
        "meta_mean_motion_ddot": 0,
        "tle_line1": "1 30680U 99025AQN 25352.76598713  .00003512  00000+0  35014-2 0  9990",
        "tle_line2": "2 30680  99.6298  35.2546 0338287 152.9003 209.0250 13.56159217923358"
      },
      "geometry": {
        "type": "Point",
        "coordinates": [
          -32.72094592807128,
          79.66386515870776
        ]
      }
    }
  ]
}